CCSDS_OMM_VERS = 2.0
CREATION_DATE  = 
ORIGINATOR     = 

OBJECT_NAME    = STARLINK-36916
OBJECT_ID      = 2026-040H
CENTER_NAME    = EARTH
REF_FRAME      = TEME
TIME_SYSTEM    = UTC
MEAN_ELEMENT_THEORY = SGP/SGP4

EPOCH          = 2026-03-28T04:00:01.999584
MEAN_MOTION    = 15.70918791
ECCENTRICITY   = .00013383
INCLINATION    = 97.2858
RA_OF_ASC_NODE = 36.5292
ARG_OF_PERICENTER = 107.2335
MEAN_ANOMALY   = 273.6932

EPHEMERIS_TYPE = 0
CLASSIFICATION_TYPE = U
NORAD_CAT_ID   = 68022
ELEMENT_SET_NO = 999
REV_AT_EPOCH   = 540
BSTAR          = -.17118927E-1
MEAN_MOTION_DOT = -.1857676E-1
MEAN_MOTION_DDOT = 0

CCSDS_OMM_VERS = 2.0
CREATION_DATE  = 
ORIGINATOR     = 

OBJECT_NAME    = STARLINK-36871
OBJECT_ID      = 2026-040J
CENTER_NAME    = EARTH
REF_FRAME      = TEME
TIME_SYSTEM    = UTC
MEAN_ELEMENT_THEORY = SGP/SGP4

EPOCH          = 2026-03-28T02:20:49.444800
MEAN_MOTION    = 15.75271394
ECCENTRICITY   = .00022783
INCLINATION    = 97.2868
RA_OF_ASC_NODE = 36.4586
ARG_OF_PERICENTER = 123.7783
MEAN_ANOMALY   = 236.3700

EPHEMERIS_TYPE = 0
CLASSIFICATION_TYPE = U
NORAD_CAT_ID   = 68023
ELEMENT_SET_NO = 999
REV_AT_EPOCH   = 425
BSTAR          = .13430442E-2
MEAN_MOTION_DOT = .205828E-2
MEAN_MOTION_DDOT = 0

CCSDS_OMM_VERS = 2.0
CREATION_DATE  = 
ORIGINATOR     = 

OBJECT_NAME    = STARLINK-36891
OBJECT_ID      = 2026-040K
CENTER_NAME    = EARTH
REF_FRAME      = TEME
TIME_SYSTEM    = UTC
MEAN_ELEMENT_THEORY = SGP/SGP4

EPOCH          = 2026-03-27T20:13:53.726016
MEAN_MOTION    = 15.75238981
ECCENTRICITY   = .0001281
INCLINATION    = 97.2867
RA_OF_ASC_NODE = 36.1942
ARG_OF_PERICENTER = 105.8458
MEAN_ANOMALY   = 254.2948

EPHEMERIS_TYPE = 0
CLASSIFICATION_TYPE = U
NORAD_CAT_ID   = 68024
ELEMENT_SET_NO = 999
REV_AT_EPOCH   = 421
BSTAR          = .11453359E-2
MEAN_MOTION_DOT = .174611E-2
MEAN_MOTION_DDOT = 0

CCSDS_OMM_VERS = 2.0
CREATION_DATE  = 
ORIGINATOR     = 

OBJECT_NAME    = STARLINK-36378
OBJECT_ID      = 2026-040L
CENTER_NAME    = EARTH
REF_FRAME      = TEME
TIME_SYSTEM    = UTC
MEAN_ELEMENT_THEORY = SGP/SGP4

EPOCH          = 2026-03-28T06:52:12.647136
MEAN_MOTION    = 15.75277202
ECCENTRICITY   = .00013857
INCLINATION    = 97.2862
RA_OF_ASC_NODE = 36.6654
ARG_OF_PERICENTER = 80.1592
MEAN_ANOMALY   = 279.9829

EPHEMERIS_TYPE = 0
CLASSIFICATION_TYPE = U
NORAD_CAT_ID   = 68025
ELEMENT_SET_NO = 999
REV_AT_EPOCH   = 428
BSTAR          = .15732594E-2
MEAN_MOTION_DOT = .242222E-2
MEAN_MOTION_DDOT = 0

CCSDS_OMM_VERS = 2.0
CREATION_DATE  = 
ORIGINATOR     = 

OBJECT_NAME    = STARLINK-36884
OBJECT_ID      = 2026-040M
CENTER_NAME    = EARTH
REF_FRAME      = TEME
TIME_SYSTEM    = UTC
MEAN_ELEMENT_THEORY = SGP/SGP4

EPOCH          = 2026-03-28T05:21:14.567328
MEAN_MOTION    = 15.75269891
ECCENTRICITY   = .0001679
INCLINATION    = 97.2867
RA_OF_ASC_NODE = 36.5962
ARG_OF_PERICENTER = 104.8976
MEAN_ANOMALY   = 255.2475

EPHEMERIS_TYPE = 0
CLASSIFICATION_TYPE = U
NORAD_CAT_ID   = 68026
ELEMENT_SET_NO = 999
REV_AT_EPOCH   = 427
BSTAR          = .13488116E-2
MEAN_MOTION_DOT = .206714E-2
MEAN_MOTION_DDOT = 0

CCSDS_OMM_VERS = 2.0
CREATION_DATE  = 
ORIGINATOR     = 

OBJECT_NAME    = STARLINK-36940
OBJECT_ID      = 2026-040N
CENTER_NAME    = EARTH
REF_FRAME      = TEME
TIME_SYSTEM    = UTC
MEAN_ELEMENT_THEORY = SGP/SGP4

EPOCH          = 2026-03-27T19:59:39.808032
MEAN_MOTION    = 15.75235329
ECCENTRICITY   = .00015801
INCLINATION    = 97.2853
RA_OF_ASC_NODE = 36.2150
ARG_OF_PERICENTER = 92.9808
MEAN_ANOMALY   = 267.1638

EPHEMERIS_TYPE = 0
CLASSIFICATION_TYPE = U
NORAD_CAT_ID   = 68027
ELEMENT_SET_NO = 999
REV_AT_EPOCH   = 421
BSTAR          = .17193248E-2
MEAN_MOTION_DOT = .264956E-2
MEAN_MOTION_DDOT = 0

CCSDS_OMM_VERS = 2.0
CREATION_DATE  = 
ORIGINATOR     = 

OBJECT_NAME    = STARLINK-36253
OBJECT_ID      = 2026-040P
CENTER_NAME    = EARTH
REF_FRAME      = TEME
TIME_SYSTEM    = UTC
MEAN_ELEMENT_THEORY = SGP/SGP4

EPOCH          = 2026-03-28T04:00:01.999584
MEAN_MOTION    = 15.36228592
ECCENTRICITY   = .00021304
INCLINATION    = 97.2837
RA_OF_ASC_NODE = 36.0207
ARG_OF_PERICENTER = 97.4257
MEAN_ANOMALY   = 156.2348

EPHEMERIS_TYPE = 0
CLASSIFICATION_TYPE = U
NORAD_CAT_ID   = 68028
ELEMENT_SET_NO = 999
REV_AT_EPOCH   = 550
BSTAR          = -.51656711E-1
MEAN_MOTION_DOT = -.16558E-1
MEAN_MOTION_DDOT = 0

CCSDS_OMM_VERS = 2.0
CREATION_DATE  = 
ORIGINATOR     = 

OBJECT_NAME    = STARLINK-36944
OBJECT_ID      = 2026-040Q
CENTER_NAME    = EARTH
REF_FRAME      = TEME
TIME_SYSTEM    = UTC
MEAN_ELEMENT_THEORY = SGP/SGP4

EPOCH          = 2026-03-28T06:51:11.819808
MEAN_MOTION    = 15.75271916
ECCENTRICITY   = .0001693
INCLINATION    = 97.2872
RA_OF_ASC_NODE = 36.6630
ARG_OF_PERICENTER = 61.0768
MEAN_ANOMALY   = 299.0667

EPHEMERIS_TYPE = 0
CLASSIFICATION_TYPE = U
NORAD_CAT_ID   = 68029
ELEMENT_SET_NO = 999
REV_AT_EPOCH   = 428
BSTAR          = .14981184E-2
MEAN_MOTION_DOT = .23027E-2
MEAN_MOTION_DDOT = 0

CCSDS_OMM_VERS = 2.0
CREATION_DATE  = 
ORIGINATOR     = 

OBJECT_NAME    = STARLINK-36942
OBJECT_ID      = 2026-040R
CENTER_NAME    = EARTH
REF_FRAME      = TEME
TIME_SYSTEM    = UTC
MEAN_ELEMENT_THEORY = SGP/SGP4

EPOCH          = 2026-03-27T20:09:49.820544
MEAN_MOTION    = 15.75249802
ECCENTRICITY   = .00016733
INCLINATION    = 97.2847
RA_OF_ASC_NODE = 36.2010
ARG_OF_PERICENTER = 102.7561
MEAN_ANOMALY   = 257.3892

EPHEMERIS_TYPE = 0
CLASSIFICATION_TYPE = U
NORAD_CAT_ID   = 68030
ELEMENT_SET_NO = 999
REV_AT_EPOCH   = 421
BSTAR          = .12661523E-2
MEAN_MOTION_DOT = .193568E-2
MEAN_MOTION_DDOT = 0

CCSDS_OMM_VERS = 2.0
CREATION_DATE  = 
ORIGINATOR     = 

OBJECT_NAME    = STARLINK-36913
OBJECT_ID      = 2026-040S
CENTER_NAME    = EARTH
REF_FRAME      = TEME
TIME_SYSTEM    = UTC
MEAN_ELEMENT_THEORY = SGP/SGP4

EPOCH          = 2026-03-28T04:00:01.999584
MEAN_MOTION    = 15.65782624
ECCENTRICITY   = .00013263
INCLINATION    = 97.2852
RA_OF_ASC_NODE = 36.5312
ARG_OF_PERICENTER = 104.3740
MEAN_ANOMALY   = 272.7095

EPHEMERIS_TYPE = 0
CLASSIFICATION_TYPE = U
NORAD_CAT_ID   = 68031
ELEMENT_SET_NO = 999
REV_AT_EPOCH   = 540
BSTAR          = -.21094937E-1
MEAN_MOTION_DOT = -.189029E-1
MEAN_MOTION_DDOT = 0

CCSDS_OMM_VERS = 2.0
CREATION_DATE  = 
ORIGINATOR     = 

OBJECT_NAME    = STARLINK-36935
OBJECT_ID      = 2026-040T
CENTER_NAME    = EARTH
REF_FRAME      = TEME
TIME_SYSTEM    = UTC
MEAN_ELEMENT_THEORY = SGP/SGP4

EPOCH          = 2026-03-28T06:42:02.683008
MEAN_MOTION    = 15.75338021
ECCENTRICITY   = .00009775
INCLINATION    = 97.2866
RA_OF_ASC_NODE = 36.6762
ARG_OF_PERICENTER = 347.3576
MEAN_ANOMALY   = 12.7664

EPHEMERIS_TYPE = 0
CLASSIFICATION_TYPE = U
NORAD_CAT_ID   = 68032
ELEMENT_SET_NO = 999
REV_AT_EPOCH   = 428
BSTAR          = .19259162E-2
MEAN_MOTION_DOT = .299349E-2
MEAN_MOTION_DDOT = 0

CCSDS_OMM_VERS = 2.0
CREATION_DATE  = 
ORIGINATOR     = 

OBJECT_NAME    = STARLINK-36947
OBJECT_ID      = 2026-040U
CENTER_NAME    = EARTH
REF_FRAME      = TEME
TIME_SYSTEM    = UTC
MEAN_ELEMENT_THEORY = SGP/SGP4

EPOCH          = 2026-03-28T06:48:08.935200
MEAN_MOTION    = 15.75337588
ECCENTRICITY   = .00011513
INCLINATION    = 97.2850
RA_OF_ASC_NODE = 36.6697
ARG_OF_PERICENTER = 56.7874
MEAN_ANOMALY   = 303.3502

EPHEMERIS_TYPE = 0
CLASSIFICATION_TYPE = U
NORAD_CAT_ID   = 68033
ELEMENT_SET_NO = 999
REV_AT_EPOCH   = 428
BSTAR          = .21262947E-2
MEAN_MOTION_DOT = .331773E-2
MEAN_MOTION_DDOT = 0

